[{"OBJECT_NAME":"SDA_1672","OBJECT_ID":"2025-230J","EPOCH":"2026-03-09T22:13:49.529280","MEAN_MOTION":13.84978873,"ECCENTRICITY":0.000446,"INCLINATION":81.3012,"RA_OF_ASC_NODE":303.7625,"ARG_OF_PERICENTER":83.2945,"MEAN_ANOMALY":276.872,"EPHEMERIS_TYPE":0,"CLASSIFICATION_TYPE":"U","NORAD_CAT_ID":65982,"ELEMENT_SET_NO":999,"REV_AT_EPOCH":2007,"BSTAR":0.0002038919,"MEAN_MOTION_DOT":2.42e-6,"MEAN_MOTION_DDOT":0},{"OBJECT_NAME":"SL-8 R\/B","OBJECT_ID":"1978-031B","EPOCH":"2026-03-09T16:26:32.320320","MEAN_MOTION":13.78908889,"ECCENTRICITY":0.00357538,"INCLINATION":82.926,"RA_OF_ASC_NODE":131.3678,"ARG_OF_PERICENTER":156.1395,"MEAN_ANOMALY":324.0778,"EPHEMERIS_TYPE":0,"CLASSIFICATION_TYPE":"U","NORAD_CAT_ID":10745,"ELEMENT_SET_NO":999,"REV_AT_EPOCH":41133,"BSTAR":9.366421e-5,"MEAN_MOTION_DOT":1.11e-6,"MEAN_MOTION_DDOT":0}]
